[{"OBJECT_NAME":"YAOGAN-20 01A","OBJECT_ID":"2014-047A","EPOCH":"2026-03-09T23:42:48.180096","MEAN_MOTION":13.4543306,"ECCENTRICITY":0.03815274,"INCLINATION":63.3786,"RA_OF_ASC_NODE":274.8961,"ARG_OF_PERICENTER":14.1455,"MEAN_ANOMALY":346.9906,"EPHEMERIS_TYPE":0,"CLASSIFICATION_TYPE":"U","NORAD_CAT_ID":40109,"ELEMENT_SET_NO":999,"REV_AT_EPOCH":56909,"BSTAR":0.00011386118,"MEAN_MOTION_DOT":1.4e-7,"MEAN_MOTION_DDOT":0},{"OBJECT_NAME":"COSMOS 1677","OBJECT_ID":"1985-075A","EPOCH":"2026-03-09T17:30:22.458240","MEAN_MOTION":13.86695489,"ECCENTRICITY":0.00526019,"INCLINATION":64.6829,"RA_OF_ASC_NODE":207.8655,"ARG_OF_PERICENTER":22.617,"MEAN_ANOMALY":337.719,"EPHEMERIS_TYPE":0,"CLASSIFICATION_TYPE":"U","NORAD_CAT_ID":15986,"ELEMENT_SET_NO":999,"REV_AT_EPOCH":4409,"BSTAR":2.6906919e-5,"MEAN_MOTION_DOT":-6.0e-7,"MEAN_MOTION_DDOT":0}]
